OBJECT_NAME,OBJECT_ID,EPOCH,MEAN_MOTION,ECCENTRICITY,INCLINATION,RA_OF_ASC_NODE,ARG_OF_PERICENTER,MEAN_ANOMALY,EPHEMERIS_TYPE,CLASSIFICATION_TYPE,NORAD_CAT_ID,ELEMENT_SET_NO,REV_AT_EPOCH,BSTAR,MEAN_MOTION_DOT,MEAN_MOTION_DDOT
INMARSAT 4-F3,2008-039A,2026-06-05T13:03:03.138912,1.00270854,.0002761,4.2843,31.5947,46.6096,273.5198,0,U,33278,999,4642,0,-.129E-5,0
NIMIQ 4,2008-044A,2026-06-05T14:50:17.301984,1.00270967,.0002012,0.0128,69.7262,4.3408,320.5666,0,U,33373,999,6486,0,-.208E-5,0
GALAXY 19 (G-19),2008-045A,2026-06-05T14:45:55.221408,1.00270533,.0003471,0.0134,29.8807,61.0408,287.6009,0,U,33376,999,6478,0,-.126E-5,0
ASTRA 1M,2008-057A,2026-06-05T17:01:55.659072,1.00273601,.0005085,0.2662,82.2868,18.6789,68.0485,0,U,33436,999,4562,0,.134E-5,0
EUTELSAT HOTBIRD 13C,2008-065A,2026-06-05T13:16:16.873248,1.00272629,.0003867,2.9199,79.3281,356.2865,327.1397,0,U,33459,999,4722,0,-.27E-5,0
EXPRESS-AM44,2009-007A,2026-06-05T16:53:11.496192,1.00272124,.0004438,3.4340,78.5333,350.6805,67.2209,0,U,33595,999,5217,0,-.77E-6,0
NSS-9,2009-008A,2026-06-05T15:59:04.062336,1.00270981,.0002347,1.2315,82.7689,341.6251,252.5378,0,U,33749,999,6340,0,.84E-6,0
TELSTAR 11N,2009-009A,2026-06-05T09:54:57.264192,1.00269974,.0002644,0.0177,351.3153,75.9648,297.7522,0,U,34111,999,4612,0,-.238E-5,0
WGS F2 (USA 204),2009-017A,2026-06-05T13:47:27.527424,1.00271842,.0000555,0.0185,339.4156,243.7398,295.2374,0,U,34713,999,4550,0,.8E-6,0
SES-7 (PROTOSTAR 2),2009-027A,2026-06-05T15:44:32.111808,1.00274178,.0000574,0.0572,78.1536,319.3222,200.9980,0,U,34941,999,6251,0,-.333E-5,0
MEASAT-3A,2009-032A,2026-06-05T15:59:18.648384,1.00272315,.0003229,0.0220,347.8637,84.1579,221.9034,0,U,35362,999,791,0,-.98E-6,0
GOES 14,2009-033A,2026-06-05T08:30:42.033024,1.00115245,.0002095,1.6591,83.1855,0.7745,86.0901,0,U,35491,999,647,0,-.229E-5,0
FM-5,2009-034A,2026-06-05T14:49:09.909984,1.00271280,.0000536,0.0142,294.6849,28.5009,66.9947,0,U,35493,999,4652,0,-.188E-5,0
TERRESTAR-1,2009-035A,2026-06-05T16:24:46.209024,1.00273473,.0002849,5.1740,48.8052,19.4910,320.9983,0,U,35496,999,6201,0,-.45E-6,0
ASIASAT 5,2009-042A,2026-06-05T17:24:59.443200,1.00272910,.0001504,0.0083,45.8952,11.1515,198.8595,0,U,35696,999,6159,0,-.295E-5,0
JCSAT-12 (JCSAT-RA),2009-044A,2026-06-05T17:34:01.465824,1.00272963,.0000299,0.0119,326.2685,98.9159,224.5188,0,U,35755,999,6149,0,-.315E-5,0
OPTUS D3,2009-044B,2026-06-05T16:54:52.970400,1.00271550,.0003337,0.8647,269.8782,166.7586,227.3638,0,U,35756,999,6145,0,-.133E-5,0
NIMIQ 5,2009-050A,2026-06-05T13:10:09.959232,1.00273433,.0003021,0.0171,50.5593,24.2887,303.9754,0,U,35873,999,6122,0,-.245E-5,0
AMAZONAS 2,2009-054A,2026-06-05T11:27:57.216384,1.00123126,.0000515,1.7844,83.1918,61.8268,209.4797,0,U,35942,999,6106,0,-.236E-5,0
COMSATBW-1,2009-054B,2026-06-05T18:13:05.833056,1.00271567,.0003118,0.0535,73.6730,5.3526,151.4406,0,U,35943,999,6119,0,.37E-6,0
NSS-12,2009-058A,2026-06-05T17:51:01.154304,1.00272283,.0005004,0.0619,61.6691,344.3670,172.8958,0,U,36032,999,6080,0,.84E-6,0
THOR 6,2009-058B,2026-06-05T16:55:56.233344,1.00271842,.0002214,0.0354,110.9187,346.7163,49.6347,0,U,36033,999,6089,0,.3E-7,0
INTELSAT 14 (IS-14),2009-064A,2026-06-05T09:52:49.965888,1.00272433,.0002902,0.0128,315.6608,133.3187,268.0859,0,U,36097,999,6048,0,-.261E-5,0
EUTELSAT 36B,2009-065A,2026-06-05T15:28:06.178944,1.00270048,.0006209,0.4614,80.9846,352.6503,102.9656,0,U,36101,999,6059,0,.125E-5,0
INTELSAT 15 (IS-15),2009-067A,2026-06-05T17:20:37.360896,1.00272339,.0002427,0.0148,323.4032,113.2547,162.8014,0,U,36106,999,4111,0,-.173E-5,0
WGS F3 (USA 211),2009-068A,2026-06-05T12:53:56.512032,1.00272127,.0000627,0.3385,85.8458,356.0989,235.5327,0,U,36108,999,4647,0,.76E-6,0
DIRECTV 12,2009-075A,2026-06-05T14:44:25.365408,1.00272616,.0000449,0.0383,147.5473,268.6316,316.2567,0,U,36131,999,4643,0,-.91E-6,0
BEIDOU-2 G1,2010-001A,2026-06-05T14:11:05.771328,1.00269061,.0002583,4.2662,60.4432,313.7615,233.0101,0,U,36287,999,6005,0,-.269E-5,0
SDO,2010-005A,2026-06-05T10:46:25.933728,1.00271250,.0001383,34.6271,86.5214,49.1368,177.8508,0,U,36395,999,5994,0,-.65E-6,0
INTELSAT 16 (IS-16),2010-006A,2026-06-05T13:09:17.542080,1.00271795,.0002263,0.0164,33.8635,52.2579,289.0004,0,U,36397,999,5953,0,-.232E-5,0
EWS-G2 (GOES 15),2010-008A,2026-06-05T17:51:13.501728,1.00275941,.000551,1.2459,83.0496,36.3567,106.1375,0,U,36411,999,5952,0,.31E-6,0
ECHOSTAR 14,2010-010A,2026-06-05T14:39:48.307392,1.00271912,.000257,0.0412,87.0856,2.2641,265.7433,0,U,36499,999,4643,0,.13E-6,0
