INMARSAT 4-F3           
1 33278U 08039A   26156.54378633 -.00000129  00000+0  00000+0 0  9993
2 33278   4.2843  31.5947 0002761  46.6096 273.5198  1.00270854 46420
NIMIQ 4                 
1 33373U 08044A   26156.61825581 -.00000208  00000+0  00000+0 0  9990
2 33373   0.0128  69.7262 0002012   4.3408 320.5666  1.00270967 64862
GALAXY 19 (G-19)        
1 33376U 08045A   26156.61522247 -.00000126  00000+0  00000+0 0  9996
2 33376   0.0134  29.8807 0003471  61.0408 287.6009  1.00270533 64788
ASTRA 1M                
1 33436U 08057A   26156.70967198  .00000134  00000+0  00000+0 0  9992
2 33436   0.2662  82.2868 0005085  18.6789  68.0485  1.00273601 45626
EUTELSAT HOTBIRD 13C    
1 33459U 08065A   26156.55297307 -.00000270  00000+0  00000+0 0  9999
2 33459   2.9199  79.3281 0003867 356.2865 327.1397  1.00272629 47221
EXPRESS-AM44            
1 33595U 09007A   26156.70360528 -.00000077  00000+0  00000+0 0  9995
2 33595   3.4340  78.5333 0004438 350.6805  67.2209  1.00272124 52176
NSS-9                   
1 33749U 09008A   26156.66601924  .00000084  00000+0  00000+0 0  9997
2 33749   1.2315  82.7689 0002347 341.6251 252.5378  1.00270981 63401
TELSTAR 11N             
1 34111U 09009A   26156.41316278 -.00000238  00000+0  00000+0 0  9992
2 34111   0.0177 351.3153 0002644  75.9648 297.7522  1.00269974 46128
WGS F2 (USA 204)        
1 34713U 09017A   26156.57462416  .00000080  00000+0  00000+0 0  9996
2 34713   0.0185 339.4156 0000555 243.7398 295.2374  1.00271842 45507
SES-7 (PROTOSTAR 2)     
1 34941U 09027A   26156.65592722 -.00000333  00000+0  00000+0 0  9995
2 34941   0.0572  78.1536 0000574 319.3222 200.9980  1.00274178 62517
MEASAT-3A               
1 35362U 09032A   26156.66618806 -.00000098  00000+0  00000+0 0  9990
2 35362   0.0220 347.8637 0003229  84.1579 221.9034  1.00272315  7912
GOES 14                 
1 35491U 09033A   26156.35465316 -.00000229  00000+0  00000+0 0  9992
2 35491   1.6591  83.1855 0002095   0.7745  86.0901  1.00115245  6475
FM-5                    
1 35493U 09034A   26156.61747581 -.00000188  00000+0  00000+0 0  9995
2 35493   0.0142 294.6849 0000536  28.5009  66.9947  1.00271280 46522
TERRESTAR-1             
1 35496U 09035A   26156.68386816 -.00000045  00000+0  00000+0 0  9998
2 35496   5.1740  48.8052 0002849  19.4910 320.9983  1.00273473 62010
ASIASAT 5               
1 35696U 09042A   26156.72568800 -.00000295  00000+0  00000+0 0  9995
2 35696   0.0083  45.8952 0001504  11.1515 198.8595  1.00272910 61597
JCSAT-12 (JCSAT-RA)     
1 35755U 09044A   26156.73196141 -.00000315  00000+0  00000+0 0  9992
2 35755   0.0119 326.2685 0000299  98.9159 224.5188  1.00272963 61491
OPTUS D3                
1 35756U 09044B   26156.70477975 -.00000133  00000+0  00000+0 0  9995
2 35756   0.8647 269.8782 0003337 166.7586 227.3638  1.00271550 61458
NIMIQ 5                 
1 35873U 09050A   26156.54872638 -.00000245  00000+0  00000+0 0  9993
2 35873   0.0171  50.5593 0003021  24.2887 303.9754  1.00273433 61226
AMAZONAS 2              
1 35942U 09054A   26156.47774556 -.00000236  00000+0  00000+0 0  9996
2 35942   1.7844  83.1918 0000515  61.8268 209.4797  1.00123126 61068
COMSATBW-1              
1 35943U 09054B   26156.75909529  .00000037  00000+0  00000+0 0  9996
2 35943   0.0535  73.6730 0003118   5.3526 151.4406  1.00271567 61196
NSS-12                  
1 36032U 09058A   26156.74376336  .00000084  00000+0  00000+0 0  9995
2 36032   0.0619  61.6691 0005004 344.3670 172.8958  1.00272283 60806
THOR 6                  
1 36033U 09058B   26156.70551196  .00000003  00000+0  00000+0 0  9992
2 36033   0.0354 110.9187 0002214 346.7163  49.6347  1.00271842 60896
INTELSAT 14 (IS-14)     
1 36097U 09064A   26156.41168942 -.00000261  00000+0  00000+0 0  9997
2 36097   0.0128 315.6608 0002902 133.3187 268.0859  1.00272433 60484
EUTELSAT 36B            
1 36101U 09065A   26156.64451596  .00000125  00000+0  00000+0 0  9997
2 36101   0.4614  80.9846 0006209 352.6503 102.9656  1.00270048 60595
INTELSAT 15 (IS-15)     
1 36106U 09067A   26156.72265464 -.00000173  00000+0  00000+0 0  9994
2 36106   0.0148 323.4032 0002427 113.2547 162.8014  1.00272339 41112
WGS F3 (USA 211)        
1 36108U 09068A   26156.53745963  .00000076  00000+0  00000+0 0  9994
2 36108   0.3385  85.8458 0000627 356.0989 235.5327  1.00272127 46472
DIRECTV 12              
1 36131U 09075A   26156.61418247 -.00000091  00000+0  00000+0 0  9997
2 36131   0.0383 147.5473 0000449 268.6316 316.2567  1.00272616 46432
BEIDOU-2 G1             
1 36287U 10001A   26156.59103902 -.00000269  00000+0  00000+0 0  9993
2 36287   4.2662  60.4432 0002583 313.7615 233.0101  1.00269061 60057
SDO                     
1 36395U 10005A   26156.44891127 -.00000065  00000+0  00000+0 0  9998
2 36395  34.6271  86.5214 0001383  49.1368 177.8508  1.00271250 59944
INTELSAT 16 (IS-16)     
1 36397U 10006A   26156.54811970 -.00000232  00000+0  00000+0 0  9996
2 36397   0.0164  33.8635 0002263  52.2579 289.0004  1.00271795 59539
EWS-G2 (GOES 15)        
1 36411U 10008A   26156.74390627  .00000031  00000+0  00000+0 0  9994
2 36411   1.2459  83.0496 0005510  36.3567 106.1375  1.00275941 59522
ECHOSTAR 14             
1 36499U 10010A   26156.61097578  .00000013  00000+0  00000+0 0  9998
2 36499   0.0412  87.0856 0002570   2.2641 265.7433  1.00271912 46433
